{"type": "FeatureCollection", "features": [ {"type": "Feature", "properties": {"norad_id": 38779, "name": "GSAT-10 (GAGAN/PRN 128)", "group": "gnss", "lat": 0.035066042891110406, "lon": 77.18496886105328, "alt_km": 35778.8302713928, "timestamp": "2025-12-17T17:50:19.493060+00:00", "meta": {"OBJECT_NAME": "GSAT-10 (GAGAN/PRN 128)", "OBJECT_ID": "2012-051B", "EPOCH": "2025-12-17T02:39:38.687616", "MEAN_MOTION": 1.00272719, "ECCENTRICITY": 0.00024891, "INCLINATION": 0.08, "RA_OF_ASC_NODE": 265.8584, "ARG_OF_PERICENTER": 219.6674, "MEAN_ANOMALY": 83.397, "EPHEMERIS_TYPE": 0, "CLASSIFICATION_TYPE": "U", "NORAD_CAT_ID": 38779, "ELEMENT_SET_NO": 999, "REV_AT_EPOCH": 4827, "BSTAR": 0, "MEAN_MOTION_DOT": -1.41e-06, "MEAN_MOTION_DDOT": 0}, "tle": {"line1": "1 38779U 12051B   25351.11086444 -.00000141  00000+0  00000+0 0  9992", "line2": "2 38779   0.0800 265.8584 0002489 219.6674  83.3970  1.00272719 48270"}}, "geometry": {"type": "Point", "coordinates": [77.18496886105328, 0.035066042891110406]}}, {"type": "Feature", "properties": {"norad_id": 38833, "name": "GPS BIIF-3  (PRN 24)", "group": "gnss", "lat": -47.888164155613936, "lon": 96.17028250243152, "alt_km": 20491.597787861727, "timestamp": "2025-12-17T17:50:19.493071+00:00", "meta": {"OBJECT_NAME": "GPS BIIF-3  (PRN 24)", "OBJECT_ID": "2012-053A", "EPOCH": "2025-12-16T20:09:13.627584", "MEAN_MOTION": 2.00565075, "ECCENTRICITY": 0.01759464, "INCLINATION": 53.5585, "RA_OF_ASC_NODE": 151.0706, "ARG_OF_PERICENTER": 64.0575, "MEAN_ANOMALY": 297.7402, "EPHEMERIS_TYPE": 0, "CLASSIFICATION_TYPE": "U", "NORAD_CAT_ID": 38833, "ELEMENT_SET_NO": 999, "REV_AT_EPOCH": 9578, "BSTAR": 0, "MEAN_MOTION_DOT": 7.2e-07, "MEAN_MOTION_DDOT": 0}, "tle": {"line1": "1 38833U 12053A   25350.83974106  .00000072  00000+0  00000+0 0  9996", "line2": "2 38833  53.5585 151.0706 0175946  64.0575 297.7402  2.00565075 95787"}}, "geometry": {"type": "Point", "coordinates": [96.17028250243152, -47.888164155613936]}}, {"type": "Feature", "properties": {"norad_id": 38857, "name": "GSAT0103 (GALILEO-FM3)", "group": "gnss", "lat": 49.63458461108861, "lon": 159.8659276816807, "alt_km": 23223.77716383927, "timestamp": "2025-12-17T17:50:19.493083+00:00", "meta": {"OBJECT_NAME": "GSAT0103 (GALILEO-FM3)", "OBJECT_ID": "2012-055A", "EPOCH": "2025-12-13T12:39:44.093088", "MEAN_MOTION": 1.70473367, "ECCENTRICITY": 0.00026827, "INCLINATION": 55.6929, "RA_OF_ASC_NODE": 106.6448, "ARG_OF_PERICENTER": 268.8486, "MEAN_ANOMALY": 91.0883, "EPHEMERIS_TYPE": 0, "CLASSIFICATION_TYPE": "U", "NORAD_CAT_ID": 38857, "ELEMENT_SET_NO": 999, "REV_AT_EPOCH": 8184, "BSTAR": 0, "MEAN_MOTION_DOT": 1e-08, "MEAN_MOTION_DDOT": 0}, "tle": {"line1": "1 38857U 12055A   25347.52759367  .00000001  00000+0  00000+0 0  9998", "line2": "2 38857  55.6929 106.6448 0002682 268.8486  91.0883  1.70473367 81846"}}, "geometry": {"type": "Point", "coordinates": [159.8659276816807, 49.63458461108861]}}, {"type": "Feature", "properties": {"norad_id": 38953, "name": "BEIDOU-2 G6 (C02)", "group": "gnss", "lat": 0.2186722061719572, "lon": 78.24104004580045, "alt_km": 35775.769816977954, "timestamp": "2025-12-17T17:50:19.493095+00:00", "meta": {"OBJECT_NAME": "BEIDOU-2 G6 (C02)", "OBJECT_ID": "2012-059A", "EPOCH": "2025-12-16T20:36:20.086848", "MEAN_MOTION": 1.00269484, "ECCENTRICITY": 0.00080985, "INCLINATION": 3.9596, "RA_OF_ASC_NODE": 75.466, "ARG_OF_PERICENTER": 291.412, "MEAN_ANOMALY": 111.9285, "EPHEMERIS_TYPE": 0, "CLASSIFICATION_TYPE": "U", "NORAD_CAT_ID": 38953, "ELEMENT_SET_NO": 999, "REV_AT_EPOCH": 4808, "BSTAR": 0, "MEAN_MOTION_DOT": -1.53e-06, "MEAN_MOTION_DDOT": 0}, "tle": {"line1": "1 38953U 12059A   25350.85856582 -.00000153  00000+0  00000+0 0  9995", "line2": "2 38953   3.9596  75.4660 0008098 291.4120 111.9285  1.00269484 48085"}}, "geometry": {"type": "Point", "coordinates": [78.24104004580045, 0.2186722061719572]}}, {"type": "Feature", "properties": {"norad_id": 38977, "name": "LUCH 5B (SDCM/PRN 125)", "group": "gnss", "lat": -9.692965395399069, "lon": -21.816288197778285, "alt_km": 35788.07733969662, "timestamp": "2025-12-17T17:50:19.493123+00:00", "meta": {"OBJECT_NAME": "LUCH 5B (SDCM/PRN 125)", "OBJECT_ID": "2012-061A", "EPOCH": "2025-12-16T23:33:05.565888", "MEAN_MOTION": 1.00272466, "ECCENTRICITY": 0.0006765, "INCLINATION": 10.0904, "RA_OF_ASC_NODE": 51.6657, "ARG_OF_PERICENTER": 194.2806, "MEAN_ANOMALY": 176.8583, "EPHEMERIS_TYPE": 0, "CLASSIFICATION_TYPE": "U", "NORAD_CAT_ID": 38977, "ELEMENT_SET_NO": 999, "REV_AT_EPOCH": 4778, "BSTAR": 0, "MEAN_MOTION_DOT": -1.22e-06, "MEAN_MOTION_DDOT": 0}, "tle": {"line1": "1 38977U 12061A   25350.98131442 -.00000122  00000+0  00000+0 0  9995", "line2": "2 38977  10.0904  51.6657 0006765 194.2806 176.8583  1.00272466 47786"}}, "geometry": {"type": "Point", "coordinates": [-21.816288197778285, -9.692965395399069]}}, {"type": "Feature", "properties": {"norad_id": 39155, "name": "COSMOS 2485 (747)", "group": "gnss", "lat": -22.68679785118358, "lon": 68.64205846906137, "alt_km": 19149.372690196567, "timestamp": "2025-12-17T17:50:19.493140+00:00", "meta": {"OBJECT_NAME": "COSMOS 2485 (747)", "OBJECT_ID": "2013-019A", "EPOCH": "2025-12-17T07:21:50.321088", "MEAN_MOTION": 2.13103137, "ECCENTRICITY": 0.00247401, "INCLINATION": 65.3162, "RA_OF_ASC_NODE": 79.7134, "ARG_OF_PERICENTER": 229.9478, "MEAN_ANOMALY": 129.8522, "EPHEMERIS_TYPE": 0, "CLASSIFICATION_TYPE": "U", "NORAD_CAT_ID": 39155, "ELEMENT_SET_NO": 999, "REV_AT_EPOCH": 9840, "BSTAR": 0, "MEAN_MOTION_DOT": -4.8e-07, "MEAN_MOTION_DDOT": 0}, "tle": {"line1": "1 39155U 13019A   25351.30683242 -.00000048  00000+0  00000+0 0  9992", "line2": "2 39155  65.3162  79.7134 0024740 229.9478 129.8522  2.13103137 98408"}}, "geometry": {"type": "Point", "coordinates": [68.64205846906137, -22.68679785118358]}}, {"type": "Feature", "properties": {"norad_id": 39166, "name": "GPS BIIF-4  (PRN 27)", "group": "gnss", "lat": 25.079093848163986, "lon": -64.27764838176621, "alt_km": 19829.305687771546, "timestamp": "2025-12-17T17:50:19.493152+00:00", "meta": {"OBJECT_NAME": "GPS BIIF-4  (PRN 27)", "OBJECT_ID": "2013-023A", "EPOCH": "2025-12-15T04:59:33.811872", "MEAN_MOTION": 2.00564736, "ECCENTRICITY": 0.01378529, "INCLINATION": 54.65, "RA_OF_ASC_NODE": 276.4679, "ARG_OF_PERICENTER": 48.4851, "MEAN_ANOMALY": 312.7012, "EPHEMERIS_TYPE": 0, "CLASSIFICATION_TYPE": "U", "NORAD_CAT_ID": 39166, "ELEMENT_SET_NO": 999, "REV_AT_EPOCH": 9219, "BSTAR": 0, "MEAN_MOTION_DOT": -6.8e-07, "MEAN_MOTION_DDOT": 0}, "tle": {"line1": "1 39166U 13023A   25349.20803023 -.00000068  00000+0  00000+0 0  9998", "line2": "2 39166  54.6500 276.4679 0137852  48.4851 312.7012  2.00564736 92194"}}, "geometry": {"type": "Point", "coordinates": [-64.27764838176621, 25.079093848163986]}}, {"type": "Feature", "properties": {"norad_id": 39199, "name": "IRNSS-1A", "group": "gnss", "lat": -9.8601113390187, "lon": 52.29978201675085, "alt_km": 35858.440342166796, "timestamp": "2025-12-17T17:50:19.493163+00:00", "meta": {"OBJECT_NAME": "IRNSS-1A", "OBJECT_ID": "2013-034A", "EPOCH": "2025-12-16T18:45:30.034368", "MEAN_MOTION": 1.00271882, "ECCENTRICITY": 0.0023621, "INCLINATION": 35.3115, "RA_OF_ASC_NODE": 66.4956, "ARG_OF_PERICENTER": 207.6795, "MEAN_ANOMALY": 147.7415, "EPHEMERIS_TYPE": 0, "CLASSIFICATION_TYPE": "U", "NORAD_CAT_ID": 39199, "ELEMENT_SET_NO": 999, "REV_AT_EPOCH": 4553, "BSTAR": 0, "MEAN_MOTION_DOT": 6.3e-07, "MEAN_MOTION_DDOT": 0}, "tle": {"line1": "1 39199U 13034A   25350.78159762  .00000063  00000+0  00000+0 0  9999", "line2": "2 39199  35.3115  66.4956 0023621 207.6795 147.7415  1.00271882 45532"}}, "geometry": {"type": "Point", "coordinates": [52.29978201675085, -9.8601113390187]}}, {"type": "Feature", "properties": {"norad_id": 39533, "name": "GPS BIIF-5  (PRN 30)", "group": "gnss", "lat": 27.244152564100865, "lon": 179.0196536082193, "alt_km": 20383.84654193062, "timestamp": "2025-12-17T17:50:19.493175+00:00", "meta": {"OBJECT_NAME": "GPS BIIF-5  (PRN 30)", "OBJECT_ID": "2014-008A", "EPOCH": "2025-12-17T04:42:21.782016", "MEAN_MOTION": 2.00574699, "ECCENTRICITY": 0.00793343, "INCLINATION": 53.632, "RA_OF_ASC_NODE": 156.7429, "ARG_OF_PERICENTER": 226.5757, "MEAN_ANOMALY": 132.7662, "EPHEMERIS_TYPE": 0, "CLASSIFICATION_TYPE": "U", "NORAD_CAT_ID": 39533, "ELEMENT_SET_NO": 999, "REV_AT_EPOCH": 8603, "BSTAR": 0, "MEAN_MOTION_DOT": 7.8e-07, "MEAN_MOTION_DDOT": 0}, "tle": {"line1": "1 39533U 14008A   25351.19608544  .00000078  00000+0  00000+0 0  9992", "line2": "2 39533  53.6320 156.7429 0079334 226.5757 132.7662  2.00574699 86034"}}, "geometry": {"type": "Point", "coordinates": [179.0196536082193, 27.244152564100865]}}, {"type": "Feature", "properties": {"norad_id": 39617, "name": "ASTRA 5B (EGNOS/PRN 123)", "group": "gnss", "lat": -0.019307240258476282, "lon": 17.751490133906632, "alt_km": 35790.74324421283, "timestamp": "2025-12-17T17:50:19.493186+00:00", "meta": {"OBJECT_NAME": "ASTRA 5B (EGNOS/PRN 123)", "OBJECT_ID": "2014-011B", "EPOCH": "2025-12-16T23:44:27.856320", "MEAN_MOTION": 1.00274743, "ECCENTRICITY": 0.00041876, "INCLINATION": 0.0687, "RA_OF_ASC_NODE": 45.2179, "ARG_OF_PERICENTER": 224.2454, "MEAN_ANOMALY": 196.0373, "EPHEMERIS_TYPE": 0, "CLASSIFICATION_TYPE": "U", "NORAD_CAT_ID": 39617, "ELEMENT_SET_NO": 999, "REV_AT_EPOCH": 4284, "BSTAR": 0, "MEAN_MOTION_DOT": 1.62e-06, "MEAN_MOTION_DDOT": 0}, "tle": {"line1": "1 39617U 14011B   25350.98921130  .00000162  00000+0  00000+0 0  9998", "line2": "2 39617   0.0687  45.2179 0004187 224.2454 196.0373  1.00274743 42845"}}, "geometry": {"type": "Point", "coordinates": [17.751490133906632, -0.019307240258476282]}}]}